[{"OBJECT_NAME":"KINEIS-1B","OBJECT_ID":"2024-114A","EPOCH":"2026-03-09T23:21:36.874080","MEAN_MOTION":14.80419144,"ECCENTRICITY":0.00037258,"INCLINATION":97.9923,"RA_OF_ASC_NODE":93.6056,"ARG_OF_PERICENTER":72.6179,"MEAN_ANOMALY":287.544,"EPHEMERIS_TYPE":0,"CLASSIFICATION_TYPE":"U","NORAD_CAT_ID":60079,"ELEMENT_SET_NO":999,"REV_AT_EPOCH":9272,"BSTAR":0.00022203234,"MEAN_MOTION_DOT":1.644e-5,"MEAN_MOTION_DDOT":0},{"OBJECT_NAME":"COSMOS 2251 DEB","OBJECT_ID":"1993-036KH","EPOCH":"2026-03-09T23:23:46.177728","MEAN_MOTION":14.80244955,"ECCENTRICITY":0.00164046,"INCLINATION":73.9997,"RA_OF_ASC_NODE":304.4323,"ARG_OF_PERICENTER":40.701,"MEAN_ANOMALY":20.1863,"EPHEMERIS_TYPE":0,"CLASSIFICATION_TYPE":"U","NORAD_CAT_ID":34070,"ELEMENT_SET_NO":999,"REV_AT_EPOCH":89900,"BSTAR":0.0020937086,"MEAN_MOTION_DOT":0.00015973,"MEAN_MOTION_DDOT":0}]
